[{"OBJECT_NAME":"ASTROCAST-0404","OBJECT_ID":"2023-001DH","EPOCH":"2026-03-09T19:24:02.920896","MEAN_MOTION":15.26309833,"ECCENTRICITY":0.00068478,"INCLINATION":97.5646,"RA_OF_ASC_NODE":161.5422,"ARG_OF_PERICENTER":1.1317,"MEAN_ANOMALY":358.9936,"EPHEMERIS_TYPE":0,"CLASSIFICATION_TYPE":"U","NORAD_CAT_ID":55112,"ELEMENT_SET_NO":999,"REV_AT_EPOCH":12936,"BSTAR":0.00034435555,"MEAN_MOTION_DOT":8.87e-5,"MEAN_MOTION_DDOT":0},{"OBJECT_NAME":"STARLINK-31966","OBJECT_ID":"2024-106Y","EPOCH":"2026-03-09T02:50:10.643136","MEAN_MOTION":15.27555294,"ECCENTRICITY":3.292e-5,"INCLINATION":43.0015,"RA_OF_ASC_NODE":335.8992,"ARG_OF_PERICENTER":185.6983,"MEAN_ANOMALY":174.3865,"EPHEMERIS_TYPE":0,"CLASSIFICATION_TYPE":"U","NORAD_CAT_ID":59944,"ELEMENT_SET_NO":999,"REV_AT_EPOCH":10048,"BSTAR":-0.00012114449,"MEAN_MOTION_DOT":-3.591e-5,"MEAN_MOTION_DDOT":0}]
